[{"OBJECT_NAME":"STARLINK-1152","OBJECT_ID":"2020-006BE","EPOCH":"2026-03-09T14:21:13.159008","MEAN_MOTION":15.38522546,"ECCENTRICITY":0.0003727,"INCLINATION":53.0397,"RA_OF_ASC_NODE":206.9193,"ARG_OF_PERICENTER":207.5385,"MEAN_ANOMALY":152.5421,"EPHEMERIS_TYPE":0,"CLASSIFICATION_TYPE":"U","NORAD_CAT_ID":45096,"ELEMENT_SET_NO":999,"REV_AT_EPOCH":33757,"BSTAR":0.0020481,"MEAN_MOTION_DOT":0.00079483,"MEAN_MOTION_DDOT":0},{"OBJECT_NAME":"KUIPER-00248","OBJECT_ID":"2025-301W","EPOCH":"2026-03-09T06:00:06.073920","MEAN_MOTION":15.37429186,"ECCENTRICITY":0.00111963,"INCLINATION":51.8685,"RA_OF_ASC_NODE":67.7485,"ARG_OF_PERICENTER":42.2591,"MEAN_ANOMALY":317.9256,"EPHEMERIS_TYPE":0,"CLASSIFICATION_TYPE":"U","NORAD_CAT_ID":67153,"ELEMENT_SET_NO":999,"REV_AT_EPOCH":1383,"BSTAR":0.0012899652,"MEAN_MOTION_DOT":0.00048086,"MEAN_MOTION_DDOT":0}]
